[{"OBJECT_NAME":"STARLINK-6330","OBJECT_ID":"2023-094X","EPOCH":"2026-03-09T22:00:01.999584","MEAN_MOTION":15.14782583,"ECCENTRICITY":0.00015787,"INCLINATION":43.0002,"RA_OF_ASC_NODE":28.1806,"ARG_OF_PERICENTER":279.3324,"MEAN_ANOMALY":121.2544,"EPHEMERIS_TYPE":0,"CLASSIFICATION_TYPE":"U","NORAD_CAT_ID":57239,"ELEMENT_SET_NO":999,"REV_AT_EPOCH":572,"BSTAR":0.0041843457,"MEAN_MOTION_DOT":0.00079712,"MEAN_MOTION_DDOT":0},{"OBJECT_NAME":"LYRA-1","OBJECT_ID":"2025-009BH","EPOCH":"2026-03-09T17:26:12.542784","MEAN_MOTION":15.16922568,"ECCENTRICITY":0.00098251,"INCLINATION":97.4045,"RA_OF_ASC_NODE":145.5025,"ARG_OF_PERICENTER":171.7868,"MEAN_ANOMALY":188.3529,"EPHEMERIS_TYPE":0,"CLASSIFICATION_TYPE":"U","NORAD_CAT_ID":62664,"ELEMENT_SET_NO":999,"REV_AT_EPOCH":6333,"BSTAR":0.00059700149,"MEAN_MOTION_DOT":0.00011728,"MEAN_MOTION_DDOT":0}]
